ATLAS CENTAUR 2         
1 00694U 63047A   26202.27386369  .00000610  00000+0  60182-4 0  9992
2 00694  30.3527 168.7573 0545670 178.1377 182.1400 14.12569898150521
THOR AGENA D R/B        
1 00733U 64002A   26202.48416843  .00000111  00000+0  57088-4 0  9999
2 00733  99.1155 223.0661 0032060 227.6837 132.1629 14.34077999257473
SL-3 R/B                
1 00877U 64053B   26202.54543688  .00000081  00000+0  39925-4 0  9995
2 00877  65.0778 298.7699 0080031 250.3096 108.9357 14.61441890286359
SL-8 R/B                
1 02802U 67045B   26202.40868813  .00000177  00000+0  56489-4 0  9994
2 02802  74.0110  98.3444 0063091  73.2503 287.5565 14.45697668108348
SL-8 R/B                
1 03230U 68040B   26202.50859381  .00002070  00000+0  15209-3 0  9995
2 03230  74.0291  40.0888 0024721 186.6462 173.4403 15.03962001110124
OAO 2                   
1 03597U 68110A   26202.47813412  .00000103  00000+0  32781-4 0  9990
2 03597  34.9922 238.2122 0005573 196.3765 163.6746 14.47363117 38496
ISIS 1                  
1 03669U 69009A   26202.53633184  .00000090  00000+0  54863-4 0  9991
2 03669  88.4456 140.6286 1707237 178.8550 181.7269 11.30437257363659
SERT 2                  
1 04327U 70009A   26202.35849745 -.00000005  00000+0  50000-4 0  9993
2 04327  99.2839 138.2382 0004807 172.9651 298.1330 13.58741364798041
SL-3 R/B                
1 05118U 71028B   26202.56912163  .00053080  00000+0  38664-3 0  9993
2 05118  81.2300 245.2092 0014829 160.1329 200.0511 15.72939391  9648
ASTEX 1                 
1 05560U 71089A   26202.41887239  .00000358  00000+0  90828-4 0  9991
2 05560  92.7012 194.8814 0015469   2.0272 358.0994 14.50875060881698
SL-8 R/B                
1 05730U 71119B   26202.34565727  .00006134  00000+0  31374-3 0  9999
2 05730  73.8868 285.4204 0542447 224.5071 131.1297 14.39789970674715
OAO 3 (COPERNICUS)      
1 06153U 72065A   26202.58307442  .00000163  00000+0  37671-4 0  9997
2 06153  35.0050 254.4193 0006526 181.2791 335.4272 14.60076886865771
ATLAS CENTAUR R/B       
1 06155U 72065B   26202.46035488  .00000479  00000+0  68246-4 0  9996
2 06155  35.0001 241.6083 0033028  55.8817 304.5010 14.77970940861064
SL-8 R/B                
1 08459U 75112B   26202.26275063  .00000178  00000+0  67207-4 0  9996
2 08459  74.0611 133.1868 0015961 194.7092 165.3600 14.38260215651073
SL-3 R/B                
1 10114U 77057B   26202.53706038  .00009111  00000+0  17304-3 0  9996
2 10114  97.5861  20.7617 0007807 148.5753 211.5965 15.48495830689024
SEASAT 1                
1 10967U 78064A   26202.33925925  .00000032  00000+0  47513-4 0  9996
2 10967 108.0180  45.9835 0001039 265.4885  94.6142 14.46261971525838
SL-14 R/B               
1 11267U 79011B   26202.37842037  .00000368  00000+0  33738-4 0  9995
2 11267  82.5261 329.7058 0015230 335.9874  24.0634 14.92041714548714
SL-8 R/B                
1 11574U 79089B   26202.46703712  .00000056  00000+0  24971-4 0  9990
2 11574  74.0670 203.3982 0016262 336.9469  23.0956 14.42415681455395
SL-14 R/B               
1 11672U 80005B   26202.34544738  .00000373  00000+0  35003-4 0  9997
2 11672  82.5142 180.4376 0017329  78.8889 281.4277 14.91053656496404
SL-8 R/B                
1 12139U 81003B   26202.37201174  .00023202  00000+0  54960-3 0  9990
2 12139  82.9384 165.9897 0249323  72.2175 290.6093 15.15256387334893
SL-3 R/B                
1 12465U 81046B   26202.58975640  .00010523  00000+0  22250-3 0  9997
2 12465  81.2310 128.6058 0015626 272.4932  87.4524 15.44875489459085
SL-3 R/B                
1 12904U 81103B   26202.55996114  .00003225  00000+0  13779-3 0  9992
2 12904  81.1570  56.2402 0012477 189.6623 170.4372 15.22518719993595
SL-3 R/B                
1 13068U 82013B   26202.58646097  .00003536  00000+0  14825-3 0  9998
2 13068  81.1745   3.6704 0022922  87.9583 272.4274 15.22992485424727
SL-3 R/B                
1 13154U 82039B   26202.61077457  .00001804  00000+0  10643-3 0  9994
2 13154  81.1514  61.3207 0028987 236.7698 123.0749 15.10719864401856
SL-3 R/B                
1 13403U 82079B   26202.60844891  .00004949  00000+0  18948-3 0  9997
2 13403  81.1452  34.7598 0024858  72.8728 287.5226 15.26053893398117
SL-14 R/B               
1 13553U 82092B   26202.43597781  .00000318  00000+0  32844-4 0  9990
2 13553  82.5673  16.2494 0019398 213.8003 166.7073 14.86767775348804
SL-3 R/B                
1 13819U 83010B   26202.08811768  .00010631  00000+0  18846-3 0  9995
2 13819  81.1004 198.1843 0012931 300.8769  59.1205 15.50009926378581
SL-3 R/B                
1 14208U 83075B   26202.48924638  .00009379  00000+0  22718-3 0  9994
2 14208  97.6114 212.4101 0022427 108.9187 251.4493 15.41062059350747
COSMOS 1536             
1 14699U 84013A   26202.47428083  .00005554  00000+0  21811-3 0  9997
2 14699  82.5462 334.6857 0014532 166.4474 193.7157 15.25395113293003
SL-14 R/B               
1 14820U 84027B   26202.48750292  .00000267  00000+0  27711-4 0  9991
2 14820  82.5429 119.5537 0016415 248.6964 111.2500 14.86081851267506
